{"t0":2.4605599279348007e6,"tf_exposure":2.4605599295262364e6,"times":[2.4605599279348007e6,2.4605599280505413e6,2.4605599281662824e6,2.460559928282023e6,2.460559928397764e6,2.4605599285135046e6,2.460559928629245e6,2.460559928744986e6,2.4605599288607268e6,2.4605599289764673e6,2.4605599290922084e6,2.460559929207949e6,2.4605599293236895e6,2.4605599294394306e6,2.460559929555171e6,2.4605599296709117e6,2.460559929786653e6,2.4605599299023934e6,2.460559930018134e6,2.460559930133875e6,2.4605599302496156e6,2.460559930365356e6,2.460559930481097e6,2.460559930596838e6],"azimuths":[2.0411215646495187,2.050225542443493,2.0612235257432374,2.0747372424490553,2.0916922679929,2.1135268384608077,2.142597861609818,2.1830343010620004,2.242716912911338,2.338456439551917,2.511374376380777,2.871631439105787,-2.712645197088393,-2.0664148319210405,-1.750823440264198,-1.595980294383992,-1.5082364550438399,-1.4526190880430332,-1.4144815687274046,-1.3868124478255595,-1.3658782683053063,-1.3495211196712322,-1.3364110902972648,-1.325685494032904],"tf":2.460559930596838e6,"t0_exposure":2.4605599290054026e6,"elevations":[0.5319650075012232,0.5781020215835024,0.6292330461015275,0.6860830115734963,0.7494283951367613,0.8200434976031438,0.8985928421406231,0.9854322559029695,1.0802473291746109,1.1813424599630014,1.2838724247773827,1.3737798561773717,1.4107469505845314,1.3605549400999348,1.266493031767769,1.1633792171434107,1.0628610019416924,0.9690454808876361,0.8833352579144702,0.8059070850758283,0.7363393658158423,0.6739400555152123,0.6179281188189651,0.5675310779062229],"azel0":[2.0411215646495187,0.5319650075012232],"azelf_exposure":[-1.8297203358847396,1.290008225020002],"tm":2.460559929207949e6,"azelf":[-1.325685494032904,0.5675310779062229],"tle":{"name":"STARLINK-5897","satellite_number":55931,"classification":"U","international_designator":"23037T","epoch_year":24,"epoch_day":248.39979779,"dn_o2":8.6e-7,"ddn_o6":0.0,"bstar":1.5026999999999999e-5,"element_set_number":999,"inclination":69.9991,"raan":254.2759,"eccentricity":0.0002946,"argument_of_perigee":269.8645,"mean_anomaly":90.2177,"mean_motion":14.9833237,"revolution_number":8091},"azel0_exposure":[2.381685923759132,1.2069749511665968],"tle_string":"STARLINK-5897           \n1 55931U 23037T   24248.39979779  .00000086  00000+0  15027-4 0  9990\n2 55931  69.9991 254.2759 0002946 269.8645  90.2177 14.98332370 80917","azelm":[2.871631439105787,1.3737798561773717]}